{
  "type": "FeatureCollection",
  "features": [
    {
      "type": "Feature",
      "properties": {
        "norad_id": 30849,
        "name": "FENGYUN 1C DEB",
        "group": "fengyun-1c-debris",
        "lat": -47.30948235580308,
        "lon": -137.01143813819752,
        "alt_km": 853.2709926328653,
        "timestamp": "2025-12-18T19:29:52.823413+00:00",
        "meta_object_name": "FENGYUN 1C DEB",
        "meta_object_id": "1999-025AWK",
        "meta_epoch": "2025-12-18T03:17:18.951360",
        "meta_mean_motion": 14.188856,
        "meta_eccentricity": 0.00479201,
        "meta_inclination": 99.0481,
        "meta_ra_of_asc_node": 52.2467,
        "meta_arg_of_pericenter": 350.4237,
        "meta_mean_anomaly": 30.0892,
        "meta_ephemeris_type": 0,
        "meta_classification_type": "U",
        "meta_norad_cat_id": 30849,
        "meta_element_set_no": 999,
        "meta_rev_at_epoch": 96449,
        "meta_bstar": 0.0010532237,
        "meta_mean_motion_dot": 2.172e-05,
        "meta_mean_motion_ddot": 0,
        "tle_line1": "1 30849U 99025AWK 25352.13702490  .00002172  00000+0  10532-2 0  9996",
        "tle_line2": "2 30849  99.0481  52.2467 0047920 350.4237  30.0892 14.18885600964494"
      },
      "geometry": {
        "type": "Point",
        "coordinates": [
          -137.01143813819752,
          -47.30948235580308
        ]
      }
    },
    {
      "type": "Feature",
      "properties": {
        "norad_id": 30850,
        "name": "FENGYUN 1C DEB",
        "group": "fengyun-1c-debris",
        "lat": 75.75340881101594,
        "lon": 73.53395611740069,
        "alt_km": 814.2050129429317,
        "timestamp": "2025-12-18T19:29:52.823423+00:00",
        "meta_object_name": "FENGYUN 1C DEB",
        "meta_object_id": "1999-025AWL",
        "meta_epoch": "2025-12-17T14:30:57.177216",
        "meta_mean_motion": 14.16320929,
        "meta_eccentricity": 0.01091735,
        "meta_inclination": 98.3949,
        "meta_ra_of_asc_node": 216.832,
        "meta_arg_of_pericenter": 183.6129,
        "meta_mean_anomaly": 245.4152,
        "meta_ephemeris_type": 0,
        "meta_classification_type": "U",
        "meta_norad_cat_id": 30850,
        "meta_element_set_no": 999,
        "meta_rev_at_epoch": 95867,
        "meta_bstar": 0.0013128061,
        "meta_mean_motion_dot": 2.721e-05,
        "meta_mean_motion_ddot": 0,
        "tle_line1": "1 30850U 99025AWL 25351.60482844  .00002721  00000+0  13128-2 0  9991",
        "tle_line2": "2 30850  98.3949 216.8320 0109173 183.6129 245.4152 14.16320929958678"
      },
      "geometry": {
        "type": "Point",
        "coordinates": [
          73.53395611740069,
          75.75340881101594
        ]
      }
    },
    {
      "type": "Feature",
      "properties": {
        "norad_id": 30852,
        "name": "FENGYUN 1C DEB",
        "group": "fengyun-1c-debris",
        "lat": -42.60924941731728,
        "lon": 18.51716323811965,
        "alt_km": 871.5311301037782,
        "timestamp": "2025-12-18T19:29:52.823432+00:00",
        "meta_object_name": "FENGYUN 1C DEB",
        "meta_object_id": "1999-025AWN",
        "meta_epoch": "2025-12-18T00:58:25.410432",
        "meta_mean_motion": 14.10293857,
        "meta_eccentricity": 0.00560315,
        "meta_inclination": 98.7334,
        "meta_ra_of_asc_node": 9.6391,
        "meta_arg_of_pericenter": 219.3702,
        "meta_mean_anomaly": 140.3391,
        "meta_ephemeris_type": 0,
        "meta_classification_type": "U",
        "meta_norad_cat_id": 30852,
        "meta_element_set_no": 999,
        "meta_rev_at_epoch": 96457,
        "meta_bstar": 0.00042747986,
        "meta_mean_motion_dot": 7.26e-06,
        "meta_mean_motion_ddot": 0,
        "tle_line1": "1 30852U 99025AWN 25352.04057188  .00000726  00000+0  42748-3 0  9995",
        "tle_line2": "2 30852  98.7334   9.6391 0056031 219.3702 140.3391 14.10293857964573"
      },
      "geometry": {
        "type": "Point",
        "coordinates": [
          18.51716323811965,
          -42.60924941731728
        ]
      }
    },
    {
      "type": "Feature",
      "properties": {
        "norad_id": 30856,
        "name": "FENGYUN 1C DEB",
        "group": "fengyun-1c-debris",
        "lat": 6.9470255545753,
        "lon": -1.5886320291084486,
        "alt_km": 697.201552683272,
        "timestamp": "2025-12-18T19:29:52.823442+00:00",
        "meta_object_name": "FENGYUN 1C DEB",
        "meta_object_id": "1999-025AWS",
        "meta_epoch": "2025-12-17T11:17:31.756416",
        "meta_mean_motion": 14.4633817,
        "meta_eccentricity": 0.00876084,
        "meta_inclination": 98.1983,
        "meta_ra_of_asc_node": 176.1067,
        "meta_arg_of_pericenter": 224.5578,
        "meta_mean_anomaly": 165.9609,
        "meta_ephemeris_type": 0,
        "meta_classification_type": "U",
        "meta_norad_cat_id": 30856,
        "meta_element_set_no": 999,
        "meta_rev_at_epoch": 96594,
        "meta_bstar": 0.0038538132,
        "meta_mean_motion_dot": 0.00014481,
        "meta_mean_motion_ddot": 0,
        "tle_line1": "1 30856U 99025AWS 25351.47050644  .00014481  00000+0  38538-2 0  9999",
        "tle_line2": "2 30856  98.1983 176.1067 0087608 224.5578 165.9609 14.46338170965948"
      },
      "geometry": {
        "type": "Point",
        "coordinates": [
          -1.5886320291084486,
          6.9470255545753
        ]
      }
    },
    {
      "type": "Feature",
      "properties": {
        "norad_id": 30857,
        "name": "FENGYUN 1C DEB",
        "group": "fengyun-1c-debris",
        "lat": 54.77074312430103,
        "lon": 175.9151877303284,
        "alt_km": 740.5460659032815,
        "timestamp": "2025-12-18T19:29:52.823452+00:00",
        "meta_object_name": "FENGYUN 1C DEB",
        "meta_object_id": "1999-025AWT",
        "meta_epoch": "2025-12-10T22:20:28.597056",
        "meta_mean_motion": 14.51403304,
        "meta_eccentricity": 0.0041899,
        "meta_inclination": 98.9745,
        "meta_ra_of_asc_node": 334.5727,
        "meta_arg_of_pericenter": 300.5616,
        "meta_mean_anomaly": 59.1445,
        "meta_ephemeris_type": 0,
        "meta_classification_type": "U",
        "meta_norad_cat_id": 30857,
        "meta_element_set_no": 999,
        "meta_rev_at_epoch": 96697,
        "meta_bstar": 0.0076916,
        "meta_mean_motion_dot": 0.0003112,
        "meta_mean_motion_ddot": 0,
        "tle_line1": "1 30857U 99025AWT 25344.93088654  .00031120  00000+0  76916-2 0  9996",
        "tle_line2": "2 30857  98.9745 334.5727 0041899 300.5616  59.1445 14.51403304966970"
      },
      "geometry": {
        "type": "Point",
        "coordinates": [
          175.9151877303284,
          54.77074312430103
        ]
      }
    },
    {
      "type": "Feature",
      "properties": {
        "norad_id": 30858,
        "name": "FENGYUN 1C DEB",
        "group": "fengyun-1c-debris",
        "lat": 72.96189099644079,
        "lon": -99.25596431560443,
        "alt_km": 804.1183344085603,
        "timestamp": "2025-12-18T19:29:52.823461+00:00",
        "meta_object_name": "FENGYUN 1C DEB",
        "meta_object_id": "1999-025AWU",
        "meta_epoch": "2025-12-18T02:12:52.811424",
        "meta_mean_motion": 14.17789125,
        "meta_eccentricity": 0.00307009,
        "meta_inclination": 98.7985,
        "meta_ra_of_asc_node": 49.6738,
        "meta_arg_of_pericenter": 95.0009,
        "meta_mean_anomaly": 295.9877,
        "meta_ephemeris_type": 0,
        "meta_classification_type": "U",
        "meta_norad_cat_id": 30858,
        "meta_element_set_no": 999,
        "meta_rev_at_epoch": 97056,
        "meta_bstar": 0.00031547603,
        "meta_mean_motion_dot": 6.03e-06,
        "meta_mean_motion_ddot": 0,
        "tle_line1": "1 30858U 99025AWU 25352.09227791  .00000603  00000+0  31548-3 0  9995",
        "tle_line2": "2 30858  98.7985  49.6738 0030700  95.0009 295.9877 14.17789125970561"
      },
      "geometry": {
        "type": "Point",
        "coordinates": [
          -99.25596431560443,
          72.96189099644079
        ]
      }
    },
    {
      "type": "Feature",
      "properties": {
        "norad_id": 30859,
        "name": "FENGYUN 1C DEB",
        "group": "fengyun-1c-debris",
        "lat": 32.28131451019462,
        "lon": -131.02510191340835,
        "alt_km": 741.8885964747287,
        "timestamp": "2025-12-18T19:29:52.823471+00:00",
        "meta_object_name": "FENGYUN 1C DEB",
        "meta_object_id": "1999-025AWV",
        "meta_epoch": "2025-12-18T02:15:07.157376",
        "meta_mean_motion": 14.49172256,
        "meta_eccentricity": 0.00307989,
        "meta_inclination": 98.9219,
        "meta_ra_of_asc_node": 42.5203,
        "meta_arg_of_pericenter": 14.122,
        "meta_mean_anomaly": 346.0826,
        "meta_ephemeris_type": 0,
        "meta_classification_type": "U",
        "meta_norad_cat_id": 30859,
        "meta_element_set_no": 999,
        "meta_rev_at_epoch": 97112,
        "meta_bstar": 0.0020574551,
        "meta_mean_motion_dot": 7.835e-05,
        "meta_mean_motion_ddot": 0,
        "tle_line1": "1 30859U 99025AWV 25352.09383284  .00007835  00000+0  20575-2 0  9997",
        "tle_line2": "2 30859  98.9219  42.5203 0030798  14.1220 346.0826 14.49172256971128"
      },
      "geometry": {
        "type": "Point",
        "coordinates": [
          -131.02510191340835,
          32.28131451019462
        ]
      }
    }
  ]
}